STARLINK-3927           
1 52569U 22051AN  26068.43500717 -.00000301  00000+0 -82487-6 0  9996
2 52569  53.2158 120.2619 0001249  93.9577 266.1558 15.08837628211544
STRIX-5                 
1 65971U 25229A   26068.48916036  .00006129  00000+0  44900-3 0  9994
2 65971  41.9265 119.8574 0036941 120.2079 240.2413 15.03509399 21964
